              TDR Cartesian                         TDR Cartesian  
    -----------------------------------       --------------------------------
     X    =      -17512858.06                 X    =        -5337919.14
     Y    =      -10947701.46  feet           Y    =        -3336859.40  meter
     Z    =       -8315035.11                 Z    =        -2534422.70
     XDOT =      14030.054810                 XDOT =        4276.360706
     YDOT =      -9286.938515  feet/sec       YDOT =       -2830.658859  meter/sec
     ZDOT =     -17344.073837                 ZDOT =       -5286.473706
  
  
    The mean element set is posted at the UTC for which position is
    just north of the next ascending node relative to the above
    vector time
 
 
    TWO LINE MEAN ELEMENT SET
  
    ISS
    1 25544U 98067A   16073.99237680  .00016717  00000-0  10270-3 0  9075
    2 25544  51.6417 172.7905 0001923 306.2933  53.8042 15.54120028 30179
  
  
    Satellite: ISS
    Catalog Number: 25544
    Epoch time:      16073.99237680   =   yrday.fracday
    Element set:     907
    Inclination:       51.6417  deg
    RA of node:       172.7905  deg
    Eccentricity:     .0001923     
    Arg of perigee:   306.2933  deg
    Mean anomaly:      53.8042  deg
    Mean motion:   15.54120028  rev/day
    Decay rate:    1.67170E-04  rev/day^2
    Epoch rev:            3017
    Checksum:              298
 
 
    Coasting Arc #9 (Orbit 3032)
    ---------------------------------------
 
    Vector Time (GMT): 2016/074/23:10:00.000
    Vector Time (MET): N/A
    Weight (LBS)     : 890089.9
 
              M50 Cartesian                         M50 Keplerian  
    -----------------------------------       --------------------------------
     X    =       -5174557.76                 A    =         6782901.20  meter
     Y    =       -1962160.81  meter          E    =           .0009682
     Z    =        3914044.50                 I    =           51.71760
     XDOT =       4765.434760                 Wp   =           93.38709
     YDOT =      -4418.433072  meter/sec      RA   =          166.83443  deg
     ZDOT =       4075.869239                 TA   =          313.97222
                                              MA   =          314.05203
                                              Ha   =            220.627  n.mi
                                              Hp   =            215.183
 
              M50 Cartesian                         J2K Cartesian  
    -----------------------------------       --------------------------------
     X    =      -16976895.54                 X    =        -5171244.50
     Y    =       -6437535.48  feet           Y    =        -2020007.26  meter
     Z    =       12841353.34                 Z    =         3888916.10
     XDOT =      15634.628479                 XDOT =        4794.689839
     YDOT =     -14496.171496  feet/sec       YDOT =       -4364.978853  meter/sec
     ZDOT =      13372.274405                 ZDOT =        4099.089933
 
              TDR Cartesian                         TDR Cartesian  
    -----------------------------------       --------------------------------
     X    =       13755312.75                 X    =         4192619.33
     Y    =       11967894.59  feet           Y    =         3647814.27  meter
     Z    =       12732559.49                 Z    =         3880884.13
     XDOT =     -18746.408622                 XDOT =       -5713.905348
     YDOT =       7178.981061  feet/sec       YDOT =        2188.153427  meter/sec
     ZDOT =      13473.778737                 ZDOT =        4106.807759
  
  
    The mean element set is posted at the UTC for which position is
    just north of the next ascending node relative to the above
    vector time
 
 
    TWO LINE MEAN ELEMENT SET
  
    ISS
    1 25544U 98067A   16075.02120951  .00016717  00000-0  10270-3 0  9084
    2 25544  51.6410 167.6624 0001886 310.4590  49.6398 15.54141191 30336
  
  
    Satellite: ISS
    Catalog Number: 25544
    Epoch time:      16075.02120951   =   yrday.fracday
    Element set:     908
    Inclination:       51.6410  deg
    RA of node:       167.6624  deg
    Eccentricity:     .0001886     
    Arg of perigee:   310.4590  deg
    Mean anomaly:      49.6398  deg
    Mean motion:   15.54141191  rev/day
    Decay rate:    1.67170E-04  rev/day^2
    Epoch rev:            3033
    Checksum:              294
 
 
    Coasting Arc #10 (Orbit 3047)
    ---------------------------------------
 
    Vector Time (GMT): 2016/075/23:10:00.000
    Vector Time (MET): N/A
    Weight (LBS)     : 890089.9
 
              M50 Cartesian                         M50 Keplerian  
    -----------------------------------       --------------------------------
     X    =        3809906.53                 A    =         6779206.99  meter
     Y    =        2794491.37  meter          E    =           .0010956
     Z    =       -4871727.75                 I    =           51.73756
     XDOT =      -6055.733224                 Wp   =           63.53636
     YDOT =       4007.525645  meter/sec      RA   =          161.84960  deg
     ZDOT =      -2436.555301                 TA   =          182.56115
                                              MA   =          182.56676
                                              Ha   =            220.489  n.mi
                                              Hp   =            215.156
 
              M50 Cartesian                         J2K Cartesian  
    -----------------------------------       --------------------------------
     X    =       12499693.34                 X    =         3802039.29
     Y    =        9168278.78  feet           Y    =         2837051.85  meter
     Z    =      -15983358.74                 Z    =        -4853239.65
     XDOT =     -19867.891154                 XDOT =       -6088.260631
     YDOT =      13148.050015  feet/sec       YDOT =        3939.624319  meter/sec
     ZDOT =      -7993.947839                 ZDOT =       -2466.051728
 
              TDR Cartesian                         TDR Cartesian  
    -----------------------------------       --------------------------------
     X    =       -8848941.55                 X    =        -2697157.39
     Y    =      -12827387.14  feet           Y    =        -3909787.60  meter
     Z    =      -15903515.30                 Z    =        -4847391.46
     XDOT =      22119.383649                 XDOT =        6741.988136
     YDOT =      -5186.320680  feet/sec       YDOT =       -1580.790543  meter/sec
     ZDOT =      -8122.654951                 ZDOT =       -2475.785229
  
  
    The mean element set is posted at the UTC for which position is
    just north of the next ascending node relative to the above
    vector time
 
 
    TWO LINE MEAN ELEMENT SET
  
    ISS
    1 25544U 98067A   16075.98572171  .00016717  00000-0  10270-3 0  9095
    2 25544  51.6418 162.8544 0001959 315.8342  44.2654 15.54190011 30484
  
  
    Satellite: ISS
    Catalog Number: 25544
    Epoch time:      16075.98572171   =   yrday.fracday
    Element set:     909
    Inclination:       51.6418  deg
    RA of node:       162.8544  deg
    Eccentricity:     .0001959     
    Arg of perigee:   315.8342  deg
    Mean anomaly:      44.2654  deg
    Mean motion:   15.54190011  rev/day
    Decay rate:    1.67170E-04  rev/day^2
    Epoch rev:            3048
    Checksum:              313
 
 
    Coasting Arc #11 (Orbit 3063)
    ---------------------------------------
 
    Vector Time (GMT): 2016/076/23:10:00.000
    Vector Time (MET): N/A
    Weight (LBS)     : 890089.9
 
              M50 Cartesian                         M50 Keplerian  
    -----------------------------------       --------------------------------
     X    =       -2198240.51                 A    =         6777135.61  meter
     Y    =       -3603355.00  meter          E    =           .0001229
     Z    =        5301135.53                 I    =           51.76167
     XDOT =       6858.036225                 Wp   =           74.33417
     YDOT =      -3392.248959  meter/sec      RA   =          156.85904  deg
     ZDOT =        538.244009                 TA   =           10.54124
                                              MA   =           10.53867
                                              Ha   =            220.461  n.mi
                                              Hp   =            215.006
 
              M50 Cartesian                         J2K Cartesian  
    -----------------------------------       --------------------------------
     X    =       -7212075.15                 X    =        -2183533.92
     Y    =      -11822030.85  feet           Y    =        -3627854.45  meter
     Z    =       17392176.95                 Z    =         5290493.20
     XDOT =      22500.118848                 XDOT =        6892.844959
     YDOT =     -11129.425720  feet/sec       YDOT =       -3315.363163  meter/sec
     ZDOT =       1765.892417                 ZDOT =         571.643195
 
              TDR Cartesian                         TDR Cartesian  
    -----------------------------------       --------------------------------
     X    =        3222335.38                 X    =          982167.83
     Y    =       13526896.48  feet           Y    =         4122998.05  meter
     Z    =       17346523.77                 Z    =         5287220.44
     XDOT =     -23864.087443                 XDOT =       -7273.773853
     YDOT =       3234.540842  feet/sec       YDOT =         985.888049  meter/sec
     ZDOT =       1911.470806                 ZDOT =         582.616302
  
  
    The mean element set is posted at the UTC for which position is
    just north of the next ascending node relative to the above
    vector time
 
 
    TWO LINE MEAN ELEMENT SET
  
    ISS
    1 25544U 98067A   16077.01451265  .00016717  00000-0  10270-3 0  9103
    2 25544  51.6421 157.7258 0002081 316.1762  43.9225 15.54239186 30645
  
